STARLINK-30753          
1 58175U 23167A   25291.45989816 -.00000245  00000+0 -30391-5 0  9997
2 58175  43.0015 198.4867 0001185 269.5396  90.5311 15.02546018109561
STARLINK-30824          
1 58176U 23167B   25291.45878610  .00000500  00000+0  52041-4 0  9994
2 58176  43.0002 198.4784 0000946 270.5243  89.5491 15.02538195109567
STARLINK-30791          
1 58177U 23167C   25291.47543133  .00001217  00000+0  10516-3 0  9992
2 58177  43.0023 198.5876 0001213 264.8557  95.2147 15.02533785109568
STARLINK-30810          
1 58178U 23167D   25291.78463362  .00000814  00000+0  75339-4 0  9999
2 58178  43.0037 197.4673 0000940 263.5664  96.5071 15.02534740109605
STARLINK-30819          
1 58179U 23167E   25291.44891191  .00000425  00000+0  46475-4 0  9995
2 58179  42.9998 199.2468 0000478 257.7695 102.3093 15.02537257109557
STARLINK-30806          
1 58180U 23167F   25291.15747187  .00005123  00000+0  39400-3 0  9999
2 58180  43.0038 200.4962 0001655 279.8210  80.2446 15.02536846109511
STARLINK-30821          
1 58181U 23167G   25291.73801090  .00000803  00000+0  74461-4 0  9995
2 58181  43.0009 197.1119 0001048 272.5037  87.5685 15.02540528109606
STARLINK-30778          
1 58182U 23167H   25291.46877304  .00000351  00000+0  41012-4 0  9991
2 58182  43.0033 198.5356 0000902 274.4134  85.6605 15.02537477109564
STARLINK-30809          
1 58183U 23167J   25291.44224353 -.00001136  00000+0 -68998-4 0  9996
2 58183  43.0052 199.1982 0001034 260.7364  99.3361 15.02557542109553
STARLINK-30801          
1 58184U 23167K   25289.51106260  .00001849  00000+0  15193-3 0  9995
2 58184  43.0047 209.6478 0001237 272.5962  87.4738 15.02539344109269
STARLINK-30793          
1 58185U 23167L   25291.46543805  .00001680  00000+0  13938-3 0  9991
2 58185  43.0056 198.5129 0001036 269.2706  90.8018 15.02546801109563
STARLINK-30755          
1 58186U 23167M   25291.43004391  .00000471  00000+0  49928-4 0  9997
2 58186  43.0053 199.1054 0000879 254.8551 105.2194 15.02538557109551
STARLINK-30760          
1 58187U 23167N   25291.72801040  .00003258  00000+0  25596-3 0  9996
2 58187  43.0017 197.0387 0000451 268.5013  91.5778 15.02554603109600
STARLINK-30826          
1 58188U 23167P   25291.76131835  .00001135  00000+0  99069-4 0  9998
2 58188  43.0062 197.2929 0001890 274.5289  85.5337 15.02537188109608
STARLINK-30796          
1 58189U 23167Q   25291.43225928  .00001443  00000+0  12183-3 0  9993
2 58189  43.0037 199.1208 0001274 265.2314  94.8383 15.02542671109555
STARLINK-30820          
1 58190U 23167R   25291.43558717  .00001157  00000+0  10069-3 0  9993
2 58190  43.0047 199.1485 0001088 260.7417  99.3303 15.02536350109551
STARLINK-30785          
1 58191U 23167S   25291.15635844 -.00000210  00000+0 -44447-6 0  9991
2 58191  43.0025 200.4952 0001014 268.5926  91.4800 15.02544462109517
STARLINK-30807          
1 58192U 23167T   25291.75798740  .00007674  00000+0  58231-3 0  9995
2 58192  43.0051 197.2676 0002429 272.2102  87.8463 15.02550585109609
STARLINK-30822          
1 58193U 23167U   25291.02007782  .00002163  00000+0  17512-3 0  9990
2 58193  43.0015 201.1869 0001133 277.0907  82.9807 15.02534176109499
STARLINK-30830          
1 58194U 23167V   25291.74689135  .00000553  00000+0  56006-4 0  9991
2 58194  43.0064 197.1656 0001557 277.8623  82.2042 15.02535457109605
STARLINK-30827          
1 58195U 23167W   25291.74469338 -.00000569  00000+0 -27015-4 0  9990
2 58195  43.0062 197.1681 0001783 275.0253  85.0386 15.02524129109608
STARLINK-30798          
1 58196U 23167X   25291.78795327  .00003516  00000+0  27524-3 0  9992
2 58196  43.0039 197.4902 0000801 288.0846  71.9909 15.02532669109607
STARLINK-30762          
1 58197U 23167Y   25291.14970338  .00000008  00000+0  15672-4 0  9995
2 58197  43.0058 200.4375 0001249 270.0676  90.0023 15.02537395109517
TIANHUI 5A              
1 58199U 23168A   25291.59678093  .00000826  00000+0  96840-4 0  9994
2 58199  97.8200 297.4519 0001511  88.5767 271.5622 14.87592628106684
TIANHUI 5B              
1 58201U 23168C   25291.59678232  .00000820  00000+0  96260-4 0  9993
2 58201  97.8200 297.4558 0002096  94.8817 265.2639 14.87592464106682
TJS-10                  
1 58204U 23169A   25291.71882707  .00000000  00000+0  00000+0 0  9997
2 58204   1.9181  83.3826 0004858 147.5950 228.2861  1.00274007  7127
STARLINK-30800          
1 58206U 23170A   25291.60700167  .00002026  00000+0  16495-3 0  9997
2 58206  43.0054 248.2082 0001262 246.4937 113.5773 15.02540934108909
STARLINK-30845          
1 58207U 23170B   25291.23797142  .00003480  00000+0  27237-3 0  9997
2 58207  42.9963 249.7592 0000194 244.4879 115.5944 15.02559493108851
STARLINK-30841          
1 58208U 23170C   25291.61700352 -.00000124  00000+0  59049-5 0  9998
2 58208  43.0005 248.2666 0000926 261.4307  98.6430 15.02529600108909
STARLINK-30839          
1 58209U 23170D   25291.92941873  .00000440  00000+0  47657-4 0  9999
2 58209  43.0008 246.3256 0001182 269.2047  90.8660 15.02527045108954
STARLINK-30846          
1 58210U 23170E   25291.60033966 -.00001894  00000+0 -12517-3 0  9993
2 58210  43.0006 248.1586 0000973 269.5320  90.5411 15.02543079108905
STARLINK-30838          
1 58211U 23170F   25291.92273092  .00000580  00000+0  57941-4 0  9995
2 58211  43.0020 246.2781 0000430 296.6734  63.4065 15.02551051108954
STARLINK-30837          
1 58212U 23170G   25291.60367197  .00000931  00000+0  83947-4 0  9996
2 58212  43.0032 248.1647 0000909 271.8094  88.2644 15.02537475108902
STARLINK-30813          
1 58213U 23170H   25291.91941061  .00001460  00000+0  12312-3 0  9994
2 58213  43.0035 246.2538 0001244 267.9176  92.1524 15.02538702108954
STARLINK-30805          
1 58214U 23170J   25291.84960328  .00009205  00000+0  69541-3 0  9995
2 58214  43.0023 246.5883 0001285 274.6599  85.4096 15.02546734108949
STARLINK-30851          
1 58215U 23170K   25291.91275433  .00001487  00000+0  12510-3 0  9998
2 58215  43.0012 246.2015 0001107 275.0693  85.0023 15.02539756108958
STARLINK-30818          
1 58217U 23170M   25291.57370457  .00000121  00000+0  24025-4 0  9993
2 58217  43.0034 247.9593 0001391 259.3615 100.7071 15.02540840108906
STARLINK-30794          
1 58218U 23170N   25291.92606953  .00001315  00000+0  11238-3 0  9993
2 58218  43.0025 246.2836 0001221 264.1696  95.9007 15.02543868108956
STARLINK-30835          
1 58219U 23170P   25291.23465784  .00000817  00000+0  75520-4 0  9994
2 58219  43.0027 249.7144 0000910 272.4699  87.6039 15.02537860108855
STARLINK-30792          
1 58220U 23170Q   25291.89610672  .00001113  00000+0  97460-4 0  9993
2 58220  43.0037 246.0772 0001139 280.0836  79.9878 15.02538659108950
STARLINK-30836          
1 58221U 23170R   25291.75981983  .00000930  00000+0  83889-4 0  9991
2 58221  43.0036 246.7731 0001334 266.3358  93.7331 15.02536985108931
STARLINK-30855          
1 58222U 23170S   25291.61365601  .00001313  00000+0  11225-3 0  9990
2 58222  43.0059 248.2381 0001097 270.0236  90.0481 15.02544375108903
STARLINK-30840          
1 58223U 23170T   25291.61033227  .00000263  00000+0  34517-4 0  9990
2 58223  43.0012 248.2129 0001009 269.2826  90.7900 15.02537960108906
STARLINK-30875          
1 58224U 23170U   25291.57702779  .00001829  00000+0  15041-3 0  9990
2 58224  43.0052 247.9678 0001272 265.3366  94.7332 15.02543272108900
STARLINK-30872          
1 58225U 23170V   25291.90161811  .00006467  00000+0  24431-3 0  9990
2 58225  43.0001 133.0457 0001556 256.6085 103.4593 15.27580719110286
STARLINK-30865          
1 58226U 23170W   25291.25639641  .00000932  00000+0  84013-4 0  9994
2 58226  43.0024 238.8263 0001276 265.5532  94.5165 15.02545615108984
STARLINK-30874          
1 58227U 23170X   25291.22478503  .00000818  00000+0  75638-4 0  9996
2 58227  43.0041 250.4843 0001270 272.0704  87.9993 15.02539335108848
STARLINK-30871          
1 58228U 23170Y   25291.15498081  .00003115  00000+0  24550-3 0  9991
2 58228  43.0065 250.8204 0001100 264.4537  95.6180 15.02543515108839
STARLINK-30861          
1 58230U 23171A   25291.81777731  .00001059  00000+0  93456-4 0  9997
2 58230  43.0032 336.9481 0001308 275.3075  84.7618 15.02539024108382
STARLINK-30867          
1 58231U 23171B   25291.82110234  .00000336  00000+0  39953-4 0  9997
2 58231  43.0040 336.9708 0001366 266.3469  93.7217 15.02541914108381
STARLINK-30880          
1 58232U 23171C   25291.55852620  .00000191  00000+0  29212-4 0  9996
2 58232  43.0062 338.4435 0001296 268.8812  91.1882 15.02537185108342
STARLINK-30777          
1 58233U 23171D   25291.83109447  .00001404  00000+0  11898-3 0  9998
2 58233  43.0092 337.0402 0001315 276.2538  83.8154 15.02543402108388
STARLINK-30860          
1 58234U 23171E   25291.82776924 -.00000059  00000+0  10735-4 0  9994
2 58234  43.0057 337.0180 0000885 260.7224  99.3519 15.02537997108383
STARLINK-30853          
1 58236U 23171G   25291.56855991  .00004103  00000+0  31919-3 0  9998
2 58236  43.0039 338.5107 0000265 312.1561  47.9259 15.02462966108347
STARLINK-30866          
1 58237U 23171H   25291.53857315 -.00001472  00000+0 -93973-4 0  9995
2 58237  43.0006 338.2798 0000784 172.2431 187.8423 15.02518472108343
STARLINK-30817          
1 58238U 23171J   25291.43888542  .00001241  00000+0  10691-3 0  9998
2 58238  43.0040 339.2468 0001099 274.9352  85.1365 15.02542567108324
STARLINK-30847          
1 58239U 23171K   25291.44222397  .00000405  00000+0  45026-4 0  9992
2 58239  43.0054 339.2811 0001391 273.5232  86.5451 15.02531943108326
STARLINK-30848          
1 58240U 23171L   25291.85577698 -.00002392  00000+0 -16211-3 0  9998
2 58240  43.0046 338.0522 0000860 247.0164 113.0588 15.02532289108371
STARLINK-30843          
1 58241U 23171M   25291.84440946  .00001241  00000+0  10695-3 0  9993
2 58241  43.0012 337.1250 0001146 276.9174  83.1538 15.02534031108406
